[{"OBJECT_NAME":"STARLINK-5131","OBJECT_ID":"2022-125AJ","EPOCH":"2026-03-28T10:16:15.896064","MEAN_MOTION":15.08831919,"ECCENTRICITY":7.61e-5,"INCLINATION":53.2159,"RA_OF_ASC_NODE":129.8394,"ARG_OF_PERICENTER":74.7893,"MEAN_ANOMALY":285.3183,"EPHEMERIS_TYPE":0,"CLASSIFICATION_TYPE":"U","NORAD_CAT_ID":53996,"ELEMENT_SET_NO":999,"REV_AT_EPOCH":19229,"BSTAR":-0.0001085,"MEAN_MOTION_DOT":-2.014e-5,"MEAN_MOTION_DDOT":0},{"OBJECT_NAME":"STARLINK-5130","OBJECT_ID":"2022-125AK","EPOCH":"2026-03-28T12:40:43.429152","MEAN_MOTION":15.08838668,"ECCENTRICITY":0.0001375,"INCLINATION":53.216,"RA_OF_ASC_NODE":119.7786,"ARG_OF_PERICENTER":83.4417,"MEAN_ANOMALY":276.6732,"EPHEMERIS_TYPE":0,"CLASSIFICATION_TYPE":"U","NORAD_CAT_ID":53997,"ELEMENT_SET_NO":999,"REV_AT_EPOCH":19244,"BSTAR":0.00011093,"MEAN_MOTION_DOT":1.478e-5,"MEAN_MOTION_DDOT":0},{"OBJECT_NAME":"STARLINK-5128","OBJECT_ID":"2022-125AL","EPOCH":"2026-03-28T10:05:38.967360","MEAN_MOTION":15.08825973,"ECCENTRICITY":0.0001571,"INCLINATION":53.2154,"RA_OF_ASC_NODE":129.794,"ARG_OF_PERICENTER":89.6196,"MEAN_ANOMALY":270.4976,"EPHEMERIS_TYPE":0,"CLASSIFICATION_TYPE":"U","NORAD_CAT_ID":53998,"ELEMENT_SET_NO":999,"REV_AT_EPOCH":19229,"BSTAR":3.1738e-6,"MEAN_MOTION_DOT":-2.37e-6,"MEAN_MOTION_DDOT":0},{"OBJECT_NAME":"STARLINK-5079","OBJECT_ID":"2022-125AM","EPOCH":"2026-03-28T10:26:53.071008","MEAN_MOTION":15.0882459,"ECCENTRICITY":0.0001254,"INCLINATION":53.217,"RA_OF_ASC_NODE":129.888,"ARG_OF_PERICENTER":91.7608,"MEAN_ANOMALY":268.3528,"EPHEMERIS_TYPE":0,"CLASSIFICATION_TYPE":"U","NORAD_CAT_ID":53999,"ELEMENT_SET_NO":999,"REV_AT_EPOCH":19229,"BSTAR":-6.0157e-5,"MEAN_MOTION_DOT":-1.245e-5,"MEAN_MOTION_DDOT":0},{"OBJECT_NAME":"STARLINK-5088","OBJECT_ID":"2022-125AN","EPOCH":"2026-03-28T12:35:25.376928","MEAN_MOTION":15.08839398,"ECCENTRICITY":0.0001521,"INCLINATION":53.2159,"RA_OF_ASC_NODE":119.7563,"ARG_OF_PERICENTER":106.8814,"MEAN_ANOMALY":253.2345,"EPHEMERIS_TYPE":0,"CLASSIFICATION_TYPE":"U","NORAD_CAT_ID":54000,"ELEMENT_SET_NO":999,"REV_AT_EPOCH":19244,"BSTAR":-9.4076e-5,"MEAN_MOTION_DOT":-1.785e-5,"MEAN_MOTION_DDOT":0},{"OBJECT_NAME":"STARLINK-5109","OBJECT_ID":"2022-125AQ","EPOCH":"2026-03-28T08:20:58.780320","MEAN_MOTION":15.08837289,"ECCENTRICITY":0.0001368,"INCLINATION":53.217,"RA_OF_ASC_NODE":120.0964,"ARG_OF_PERICENTER":88.7792,"MEAN_ANOMALY":271.3357,"EPHEMERIS_TYPE":0,"CLASSIFICATION_TYPE":"U","NORAD_CAT_ID":54002,"ELEMENT_SET_NO":999,"REV_AT_EPOCH":19242,"BSTAR":6.4725e-6,"MEAN_MOTION_DOT":-1.85e-6,"MEAN_MOTION_DDOT":0},{"OBJECT_NAME":"STARLINK-5114","OBJECT_ID":"2022-125AR","EPOCH":"2026-03-28T11:46:19.856640","MEAN_MOTION":15.08846784,"ECCENTRICITY":0.0001429,"INCLINATION":53.2172,"RA_OF_ASC_NODE":129.5206,"ARG_OF_PERICENTER":82.2403,"MEAN_ANOMALY":277.8752,"EPHEMERIS_TYPE":0,"CLASSIFICATION_TYPE":"U","NORAD_CAT_ID":54003,"ELEMENT_SET_NO":999,"REV_AT_EPOCH":19230,"BSTAR":-4.4461e-6,"MEAN_MOTION_DOT":-3.59e-6,"MEAN_MOTION_DDOT":0},{"OBJECT_NAME":"STARLINK-5129","OBJECT_ID":"2022-125AS","EPOCH":"2026-03-28T09:55:01.635168","MEAN_MOTION":15.08842336,"ECCENTRICITY":9.86e-5,"INCLINATION":53.2156,"RA_OF_ASC_NODE":129.75,"ARG_OF_PERICENTER":73.8958,"MEAN_ANOMALY":286.2143,"EPHEMERIS_TYPE":0,"CLASSIFICATION_TYPE":"U","NORAD_CAT_ID":54004,"ELEMENT_SET_NO":999,"REV_AT_EPOCH":19229,"BSTAR":-7.5602e-5,"MEAN_MOTION_DOT":-1.491e-5,"MEAN_MOTION_DDOT":0},{"OBJECT_NAME":"STARLINK-5135","OBJECT_ID":"2022-125AT","EPOCH":"2026-03-28T10:00:18.473472","MEAN_MOTION":15.08853459,"ECCENTRICITY":0.0001263,"INCLINATION":53.2162,"RA_OF_ASC_NODE":129.7717,"ARG_OF_PERICENTER":90.1877,"MEAN_ANOMALY":269.9259,"EPHEMERIS_TYPE":0,"CLASSIFICATION_TYPE":"U","NORAD_CAT_ID":54005,"ELEMENT_SET_NO":999,"REV_AT_EPOCH":19229,"BSTAR":0.00014523,"MEAN_MOTION_DOT":2.025e-5,"MEAN_MOTION_DDOT":0},{"OBJECT_NAME":"STARLINK-5096","OBJECT_ID":"2022-125AU","EPOCH":"2026-03-28T09:39:05.957856","MEAN_MOTION":15.08841975,"ECCENTRICITY":0.0001329,"INCLINATION":53.2167,"RA_OF_ASC_NODE":129.6906,"ARG_OF_PERICENTER":89.0786,"MEAN_ANOMALY":271.0359,"EPHEMERIS_TYPE":0,"CLASSIFICATION_TYPE":"U","NORAD_CAT_ID":54006,"ELEMENT_SET_NO":999,"REV_AT_EPOCH":19228,"BSTAR":-4.1976e-5,"MEAN_MOTION_DOT":-9.56e-6,"MEAN_MOTION_DDOT":0},{"OBJECT_NAME":"STARLINK-5132","OBJECT_ID":"2022-125AV","EPOCH":"2026-03-28T09:49:41.700288","MEAN_MOTION":15.08867696,"ECCENTRICITY":0.0001413,"INCLINATION":53.2151,"RA_OF_ASC_NODE":129.7298,"ARG_OF_PERICENTER":83.27,"MEAN_ANOMALY":276.8453,"EPHEMERIS_TYPE":0,"CLASSIFICATION_TYPE":"U","NORAD_CAT_ID":54007,"ELEMENT_SET_NO":999,"REV_AT_EPOCH":19229,"BSTAR":0.00037551,"MEAN_MOTION_DOT":5.698e-5,"MEAN_MOTION_DDOT":0},{"OBJECT_NAME":"STARLINK-5145","OBJECT_ID":"2022-125AW","EPOCH":"2026-03-28T09:45:44.640288","MEAN_MOTION":15.08840201,"ECCENTRICITY":0.0001291,"INCLINATION":53.2164,"RA_OF_ASC_NODE":119.7388,"ARG_OF_PERICENTER":91.2564,"MEAN_ANOMALY":268.8577,"EPHEMERIS_TYPE":0,"CLASSIFICATION_TYPE":"U","NORAD_CAT_ID":54008,"ELEMENT_SET_NO":999,"REV_AT_EPOCH":19243,"BSTAR":2.2625e-5,"MEAN_MOTION_DOT":7.2e-7,"MEAN_MOTION_DDOT":0},{"OBJECT_NAME":"STARLINK-5099","OBJECT_ID":"2022-125AX","EPOCH":"2026-03-28T09:44:25.796832","MEAN_MOTION":15.08833543,"ECCENTRICITY":0.0001821,"INCLINATION":53.216,"RA_OF_ASC_NODE":129.7068,"ARG_OF_PERICENTER":63.0941,"MEAN_ANOMALY":297.0237,"EPHEMERIS_TYPE":0,"CLASSIFICATION_TYPE":"U","NORAD_CAT_ID":54009,"ELEMENT_SET_NO":999,"REV_AT_EPOCH":19229,"BSTAR":0.00020317,"MEAN_MOTION_DOT":2.946e-5,"MEAN_MOTION_DDOT":0},{"OBJECT_NAME":"STARLINK-5127","OBJECT_ID":"2022-125AY","EPOCH":"2026-03-28T09:35:09.957120","MEAN_MOTION":15.08835161,"ECCENTRICITY":0.0001365,"INCLINATION":53.216,"RA_OF_ASC_NODE":119.7032,"ARG_OF_PERICENTER":99.6466,"MEAN_ANOMALY":260.468,"EPHEMERIS_TYPE":0,"CLASSIFICATION_TYPE":"U","NORAD_CAT_ID":54010,"ELEMENT_SET_NO":999,"REV_AT_EPOCH":19243,"BSTAR":0.00036316,"MEAN_MOTION_DOT":5.496e-5,"MEAN_MOTION_DDOT":0},{"OBJECT_NAME":"STARLINK-5124","OBJECT_ID":"2022-125AZ","EPOCH":"2026-03-28T09:19:20.384832","MEAN_MOTION":15.0882882,"ECCENTRICITY":0.0001278,"INCLINATION":53.2162,"RA_OF_ASC_NODE":120.3303,"ARG_OF_PERICENTER":92.037,"MEAN_ANOMALY":268.0769,"EPHEMERIS_TYPE":0,"CLASSIFICATION_TYPE":"U","NORAD_CAT_ID":54011,"ELEMENT_SET_NO":999,"REV_AT_EPOCH":19242,"BSTAR":-7.567e-5,"MEAN_MOTION_DOT":-1.492e-5,"MEAN_MOTION_DDOT":0},{"OBJECT_NAME":"STARLINK-5126","OBJECT_ID":"2022-125BA","EPOCH":"2026-03-28T11:52:55.081344","MEAN_MOTION":15.08872295,"ECCENTRICITY":0.0001184,"INCLINATION":53.216,"RA_OF_ASC_NODE":119.5742,"ARG_OF_PERICENTER":92.8473,"MEAN_ANOMALY":267.2655,"EPHEMERIS_TYPE":0,"CLASSIFICATION_TYPE":"U","NORAD_CAT_ID":54012,"ELEMENT_SET_NO":999,"REV_AT_EPOCH":19244,"BSTAR":0.00025527,"MEAN_MOTION_DOT":3.781e-5,"MEAN_MOTION_DDOT":0},{"OBJECT_NAME":"STARLINK-5098","OBJECT_ID":"2022-125BB","EPOCH":"2026-03-28T12:03:34.785216","MEAN_MOTION":15.08834441,"ECCENTRICITY":0.0001291,"INCLINATION":53.2162,"RA_OF_ASC_NODE":119.6213,"ARG_OF_PERICENTER":88.8874,"MEAN_ANOMALY":271.2266,"EPHEMERIS_TYPE":0,"CLASSIFICATION_TYPE":"U","NORAD_CAT_ID":54013,"ELEMENT_SET_NO":999,"REV_AT_EPOCH":19244,"BSTAR":1.1041e-5,"MEAN_MOTION_DOT":-1.12e-6,"MEAN_MOTION_DDOT":0}]
