STARLINK-5131           
1 53996U 22125AJ  26087.42796176 -.00002014  00000+0 -10850-3 0  9994
2 53996  53.2159 129.8394 0000761  74.7893 285.3183 15.08831919192295
STARLINK-5130           
1 53997U 22125AK  26087.52828043  .00001478  00000+0  11093-3 0  9996
2 53997  53.2160 119.7786 0001375  83.4417 276.6732 15.08838668192440
STARLINK-5128           
1 53998U 22125AL  26087.42058990 -.00000237  00000+0  31738-5 0  9995
2 53998  53.2154 129.7940 0001571  89.6196 270.4976 15.08825973192297
STARLINK-5079           
1 53999U 22125AM  26087.43533647 -.00001245  00000+0 -60157-4 0  9991
2 53999  53.2170 129.8880 0001254  91.7608 268.3528 15.08824590192293
STARLINK-5088           
1 54000U 22125AN  26087.52459927 -.00001785  00000+0 -94076-4 0  9999
2 54000  53.2159 119.7563 0001521 106.8814 253.2345 15.08839398192443
STARLINK-5109           
1 54002U 22125AQ  26087.34790255 -.00000185  00000+0  64725-5 0  9994
2 54002  53.2170 120.0964 0001368  88.7792 271.3357 15.08837289192429
STARLINK-5114           
1 54003U 22125AR  26087.49050760 -.00000359  00000+0 -44461-5 0  9990
2 54003  53.2172 129.5206 0001429  82.2403 277.8752 15.08846784192308
STARLINK-5129           
1 54004U 22125AS  26087.41321337 -.00001491  00000+0 -75602-4 0  9992
2 54004  53.2156 129.7500 0000986  73.8958 286.2143 15.08842336192293
STARLINK-5135           
1 54005U 22125AT  26087.41688048  .00002025  00000+0  14523-3 0  9994
2 54005  53.2162 129.7717 0001263  90.1877 269.9259 15.08853459192296
STARLINK-5096           
1 54006U 22125AU  26087.40215229 -.00000956  00000+0 -41976-4 0  9997
2 54006  53.2167 129.6906 0001329  89.0786 271.0359 15.08841975192284
STARLINK-5132           
1 54007U 22125AV  26087.40951042  .00005698  00000+0  37551-3 0  9997
2 54007  53.2151 129.7298 0001413  83.2700 276.8453 15.08867696192296
STARLINK-5145           
1 54008U 22125AW  26087.40676667  .00000072  00000+0  22625-4 0  9993
2 54008  53.2164 119.7388 0001291  91.2564 268.8577 15.08840201192438
STARLINK-5099           
1 54009U 22125AX  26087.40585413  .00002946  00000+0  20317-3 0  9999
2 54009  53.2160 129.7068 0001821  63.0941 297.0237 15.08833543192298
STARLINK-5127           
1 54010U 22125AY  26087.39942080  .00005496  00000+0  36316-3 0  9995
2 54010  53.2160 119.7032 0001365  99.6466 260.4680 15.08835161192430
STARLINK-5124           
1 54011U 22125AZ  26087.38843038 -.00001492  00000+0 -75670-4 0  9999
2 54011  53.2162 120.3303 0001278  92.0370 268.0769 15.08828820192421
STARLINK-5126           
1 54012U 22125BA  26087.49508196  .00003781  00000+0  25527-3 0  9991
2 54012  53.2160 119.5742 0001184  92.8473 267.2655 15.08872295192447
STARLINK-5098           
1 54013U 22125BB  26087.50248594 -.00000112  00000+0  11041-4 0  9990
2 54013  53.2162 119.6213 0001291  88.8874 271.2266 15.08834441192447
